[{"OBJECT_NAME":"YAM-7","OBJECT_ID":"2024-149AN","EPOCH":"2026-03-09T17:13:55.117920","MEAN_MOTION":15.30304554,"ECCENTRICITY":0.00019733,"INCLINATION":97.3828,"RA_OF_ASC_NODE":149.4631,"ARG_OF_PERICENTER":296.5121,"MEAN_ANOMALY":63.5918,"EPHEMERIS_TYPE":0,"CLASSIFICATION_TYPE":"U","NORAD_CAT_ID":60504,"ELEMENT_SET_NO":999,"REV_AT_EPOCH":8683,"BSTAR":0.00030984439,"MEAN_MOTION_DOT":9.009e-5,"MEAN_MOTION_DDOT":0},{"OBJECT_NAME":"STARLINK-32184","OBJECT_ID":"2024-155U","EPOCH":"2026-03-09T11:00:31.565952","MEAN_MOTION":15.30171337,"ECCENTRICITY":9.928e-5,"INCLINATION":53.1599,"RA_OF_ASC_NODE":130.8751,"ARG_OF_PERICENTER":67.7239,"MEAN_ANOMALY":292.3867,"EPHEMERIS_TYPE":0,"CLASSIFICATION_TYPE":"U","NORAD_CAT_ID":60942,"ELEMENT_SET_NO":999,"REV_AT_EPOCH":8625,"BSTAR":-8.6684089e-5,"MEAN_MOTION_DOT":-2.923e-5,"MEAN_MOTION_DDOT":0}]
